NORAD_CAT_ID,OBJECT_NAME,OBJECT_TYPE,EPOCH,MEAN_MOTION,ECCENTRICITY,INCLINATION,RA_OF_ASC_NODE,ARG_OF_PERICENTER,MEAN_ANOMALY,BSTAR,MEAN_MOTION_DOT,MEAN_MOTION_DDOT,TLE_LINE0,TLE_LINE1,TLE_LINE2,SEMIMAJOR_AXIS,PERIOD,APOGEE,PERIGEE,DECAYED
52457.0,STARLINK-3899,PAYLOAD,2023-07-20 18:16:42,15.08833073,0.0001071,53.2175,71.8642,95.5424,264.5691,0.00010844,1.438e-05,0.0,0 STARLINK-3899,1 52457U 22049G   23201.76160660  .00001438  00000-0  10844-3 0  9996,2 52457  53.2175  71.8642 0001071  95.5424 264.5691 15.08833073 66906,6917.902,95.438,540.507,539.026,0.0
52457.0,STARLINK-3899,PAYLOAD,2023-07-21 00:38:14,15.08839138,0.0001047,53.2174,70.6745,98.4496,261.6615,0.00015571,2.191e-05,0.0,0 STARLINK-3899,1 52457U 22049G   23202.02656224  .00002191  00000-0  15571-3 0  9991,2 52457  53.2174  70.6745 0001047  98.4496 261.6615 15.08839138 66946,6917.883,95.438,540.472,539.024,0.0
52457.0,STARLINK-3899,PAYLOAD,2023-07-24 14:29:04,15.08838632,0.0001219,53.2177,54.6156,102.0897,258.0232,3.1383e-05,2.12e-06,0.0,0 STARLINK-3899,1 52457U 22049G   23205.60352829  .00000212  00000-0  31383-4 0  9994,2 52457  53.2177  54.6156 0001219 102.0897 258.0232 15.08838632 67321,6917.885,95.438,540.593,538.906,0.0
52457.0,STARLINK-3899,PAYLOAD,2023-07-25 14:19:52,15.08833668,0.0001214,53.2178,50.1553,99.4844,260.6285,1.0567e-05,-1.2e-06,0.0,0 STARLINK-3899,1 52457U 22049G   23206.59713318 -.00000120  00000-0  10567-4 0  9997,2 52457  53.2178  50.1553 0001214  99.4844 260.6285 15.08833668 67477,6917.9,95.438,540.605,538.925,0.0
52457.0,STARLINK-3899,PAYLOAD,2023-07-25 23:52:11,15.08834367,0.0001064,53.2179,48.3714,92.5578,267.5536,1.4084e-05,-6.4e-07,0.0,0 STARLINK-3899,1 52457U 22049G   23206.99457420 -.00000064  00000-0  14084-4 0  9995,2 52457  53.2179  48.3714 0001064  92.5578 267.5536 15.08834367 67536,6917.898,95.438,540.499,539.027,0.0
52457.0,STARLINK-3899,PAYLOAD,2023-07-26 23:42:57,15.08857842,0.0001033,53.2182,43.9107,96.0001,264.1109,-9.5682e-05,-1.811e-05,0.0,0 STARLINK-3899,1 52457U 22049G   23207.98816150 -.00001811  00000-0 -95682-4 0  9999,2 52457  53.2182  43.9107 0001033  96.0001 264.1109 15.08857842 67849,6917.826,95.436,540.405,538.976,0.0
52457.0,STARLINK-3899,PAYLOAD,2023-07-27 06:04:30,15.08832666,0.0001061,53.2168,42.7222,87.9348,272.1765,5.7903e-06,-1.96e-06,0.0,0 STARLINK-3899,1 52457U 22049G   23208.25313473 -.00000196  00000-0  57903-5 0  9999,2 52457  53.2168  42.7222 0001061  87.9348 272.1765 15.08832666 67880,6917.903,95.438,540.502,539.034,0.0
52457.0,STARLINK-3899,PAYLOAD,2023-07-27 14:01:26,15.08829601,0.0001262,53.2181,41.2351,83.1424,276.9712,1.9074e-05,1.6e-07,0.0,0 STARLINK-3899,1 52457U 22049G   23208.58433999  .00000016  00000-0  19074-4 0  9997,2 52457  53.2181  41.2351 0001262  83.1424 276.9712 15.08829601 67775,6917.912,95.438,540.65,538.904,0.0
52457.0,STARLINK-3899,PAYLOAD,2023-07-28 07:30:41,15.08834821,0.0001117,53.2165,37.9651,83.5293,276.5827,5.2567e-06,-2.04e-06,0.0,0 STARLINK-3899,1 52457U 22049G   23209.31297944 -.00000204  00000-0  52567-5 0  9992,2 52457  53.2165  37.9651 0001117  83.5293 276.5827 15.08834821 68043,6917.896,95.438,540.534,538.988,0.0
52457.0,STARLINK-3899,PAYLOAD,2023-07-28 12:16:50,15.08835535,0.0001192,53.2158,37.0722,88.1481,271.9647,6.6645e-06,-1.82e-06,0.0,0 STARLINK-3899,1 52457U 22049G   23209.51169957 -.00000182  00000-0  66645-5 0  9993,2 52457  53.2158  37.0722 0001192  88.1481 271.9647 15.08835535 67915,6917.894,95.438,540.584,538.934,0.0
52457.0,STARLINK-3899,PAYLOAD,2023-07-28 20:13:45,15.0884642,0.0001055,53.2182,35.5838,134.3153,225.7926,1.8994e-05,1.5e-07,0.0,0 STARLINK-3899,1 52457U 22049G   23209.84289070  .00000015  00000-0  18994-4 0  9995,2 52457  53.2182  35.5838 0001055 134.3153 225.7926 15.08846420 68127,6917.861,95.437,540.456,538.996,0.0
52457.0,STARLINK-3899,PAYLOAD,2023-07-29 21:39:55,15.0884828,9.66e-05,53.2171,30.8281,80.4606,279.6495,0.00016443,2.331e-05,0.0,0 STARLINK-3899,1 52457U 22049G   23210.90272699  .00002331  00000-0  16443-3 0  9992,2 52457  53.2171  30.8281 0000966  80.4606 279.6495 15.08848280 68281,6917.855,95.437,540.388,539.052,0.0
52457.0,STARLINK-3899,PAYLOAD,2023-07-30 18:19:57,15.08840106,9.33e-05,53.2176,26.9627,76.8239,283.2857,5.1131e-05,5.26e-06,0.0,0 STARLINK-3899,1 52457U 22049G   23211.76385648  .00000526  00000-0  51131-4 0  9994,2 52457  53.2176  26.9627 0000933  76.8239 283.2857 15.08840106 68418,6917.88,95.438,540.391,539.1,0.0
52457.0,STARLINK-3899,PAYLOAD,2023-08-01 18:01:31,15.08842714,9.43e-05,53.2181,18.0419,72.9633,287.1463,9.5833e-05,1.238e-05,0.0,0 STARLINK-3899,1 52457U 22049G   23213.75105506  .00001238  00000-0  95833-4 0  9996,2 52457  53.2181  18.0419 0000943  72.9633 287.1463 15.08842714 68717,6917.872,95.437,540.389,539.085,0.0
52457.0,STARLINK-3899,PAYLOAD,2023-08-03 09:46:10,15.08838998,9.02e-05,53.218,10.609,86.8754,273.2341,1.1185e-05,-1.1e-06,0.0,0 STARLINK-3899,1 52457U 22049G   23215.40706030 -.00000110  00000-0  11185-4 0  9996,2 52457  53.2180  10.6090 0000902  86.8754 273.2341 15.08838998 68969,6917.883,95.438,540.372,539.124,0.0
52457.0,STARLINK-3899,PAYLOAD,2023-08-04 17:33:52,15.08843181,8.77e-05,53.2183,4.661,84.5509,275.5583,4.1453e-07,-2.81e-06,0.0,0 STARLINK-3899,1 52457U 22049G   23216.73185973 -.00000281  00000-0  41453-6 0  9992,2 52457  53.2183   4.6610 0000877  84.5509 275.5583 15.08843181 69163,6917.871,95.437,540.342,539.129,0.0
52457.0,STARLINK-3899,PAYLOAD,2023-08-05 09:27:44,15.08835716,8.15e-05,53.2184,1.6879,88.5325,271.5761,6.0585e-05,6.77e-06,0.0,0 STARLINK-3899,1 52457U 22049G   23217.39426337  .00000677  00000-0  60585-4 0  9990,2 52457  53.2184   1.6879 0000815  88.5325 271.5761 15.08835716 69260,6917.893,95.438,540.322,539.195,0.0
52457.0,STARLINK-3899,PAYLOAD,2023-08-05 17:24:39,15.08850878,8.65e-05,53.2183,0.2003,88.6726,271.4366,0.00014631,2.042e-05,0.0,0 STARLINK-3899,1 52457U 22049G   23217.72545195  .00002042  00000-0  14631-3 0  9999,2 52457  53.2183   0.2003 0000865  88.6726 271.4366 15.08850878 69316,6917.847,95.437,540.311,539.114,0.0
52457.0,STARLINK-3899,PAYLOAD,2023-08-06 09:18:32,15.08825992,9.17e-05,53.2183,357.2276,94.6426,265.4671,6.3477e-06,-1.87e-06,0.0,0 STARLINK-3899,1 52457U 22049G   23218.38787455 -.00000187  00000-0  63477-5 0  9992,2 52457  53.2183 357.2276 0000917  94.6426 265.4671 15.08825992 69417,6917.923,95.438,540.423,539.154,0.0
52457.0,STARLINK-3899,PAYLOAD,2023-08-07 09:09:19,15.08847068,6.97e-05,53.2193,352.7642,112.1561,247.9505,-6.2442e-05,-1.281e-05,0.0,0 STARLINK-3899,1 52457U 22049G   23219.38147074 -.00001281  00000-0 -62442-4 0  9997,2 52457  53.2193 352.7642 0000697 112.1561 247.9505 15.08847068 69561,6917.859,95.437,540.206,539.242,0.0
52457.0,STARLINK-3899,PAYLOAD,2023-08-07 18:41:36,15.08857757,7.77e-05,53.2187,350.9813,99.1735,260.9345,0.00010926,1.452e-05,0.0,0 STARLINK-3899,1 52457U 22049G   23219.77889791  .00001452  00000-0  10926-3 0  9996,2 52457  53.2187 350.9813 0000777  99.1735 260.9345 15.08857757 69620,6917.826,95.436,540.229,539.154,0.0
52457.0,STARLINK-3899,PAYLOAD,2023-08-08 04:13:56,15.08838931,7.15e-05,53.2187,349.1978,102.6972,257.41,0.0002179,3.182e-05,0.0,0 STARLINK-3899,1 52457U 22049G   23220.17634850  .00003182  00000-0  21790-3 0  9999,2 52457  53.2187 349.1978 0000715 102.6972 257.4100 15.08838931 69686,6917.884,95.438,540.243,539.254,0.0
52457.0,STARLINK-3899,PAYLOAD,2023-08-08 18:32:24,15.08858757,7.94e-05,53.2175,346.5216,86.4685,273.6398,0.00046126,7.065e-05,0.0,0 STARLINK-3899,1 52457U 22049G   23220.77250273  .00007065  00000-0  46126-3 0  9992,2 52457  53.2175 346.5216 0000794  86.4685 273.6398 15.08858757 69773,6917.823,95.436,540.237,539.139,0.0
52457.0,STARLINK-3899,PAYLOAD,2023-08-09 08:50:52,15.08840801,0.0001487,53.2142,343.8453,98.3541,261.762,-0.00011559,-2.127e-05,0.0,0 STARLINK-3899,1 52457U 22049G   23221.36866867 -.00002127  00000-0 -11559-3 0  9998,2 52457  53.2142 343.8453 0001487  98.3541 261.7620 15.08840801 69860,6917.878,95.438,540.772,538.714,0.0
52457.0,STARLINK-3899,PAYLOAD,2023-08-10 18:13:58,15.08847655,7.06e-05,53.217,337.6018,90.9322,269.1751,0.00039988,6.083e-05,0.0,0 STARLINK-3899,1 52457U 22049G   23222.75970688  .00006083  00000-0  39988-3 0  9998,2 52457  53.2170 337.6018 0000706  90.9322 269.1751 15.08847655 70073,6917.857,95.437,540.21,539.234,0.0
52457.0,STARLINK-3899,PAYLOAD,2023-08-11 00:35:31,15.0883842,0.0001255,53.2174,336.4103,98.7101,261.4033,0.00017803,2.546e-05,0.0,0 STARLINK-3899,1 52457U 22049G   23223.02466986  .00002546  00000-0  17803-3 0  9992,2 52457  53.2174 336.4103 0001255  98.7101 261.4033 15.08838420 70113,6917.885,95.438,540.618,538.882,0.0
52457.0,STARLINK-3899,PAYLOAD,2023-08-11 16:29:22,15.08853324,7.66e-05,53.2168,333.4389,101.58,258.5278,0.00044574,6.816e-05,0.0,0 STARLINK-3899,1 52457U 22049G   23223.68706428  .00006816  00000-0  44574-3 0  9991,2 52457  53.2168 333.4389 0000766 101.5800 258.5278 15.08853324 70213,6917.84,95.437,540.235,539.175,0.0
52457.0,STARLINK-3899,PAYLOAD,2023-08-12 00:26:18,15.08844983,0.0001054,53.2168,331.952,83.7445,276.3667,0.00021826,3.188e-05,0.0,0 STARLINK-3899,1 52457U 22049G   23224.01826709  .00003188  00000-0  21826-3 0  9998,2 52457  53.2168 331.9520 0001054  83.7445 276.3667 15.08844983 70266,6917.865,95.437,540.459,539.001,0.0
52457.0,STARLINK-3899,PAYLOAD,2023-08-12 09:58:37,15.0883461,8.75e-05,53.2165,330.1676,88.4687,271.6405,-4.988e-05,-1.081e-05,0.0,0 STARLINK-3899,1 52457U 22049G   23224.41571033 -.00001081  00000-0 -49880-4 0  9992,2 52457  53.2165 330.1676 0000875  88.4687 271.6405 15.08834610 70327,6917.897,95.438,540.367,539.157,0.0
52457.0,STARLINK-3899,PAYLOAD,2023-08-12 16:20:09,15.08845487,7.76e-05,53.2167,328.9776,92.4167,267.6914,0.00015251,2.141e-05,0.0,0 STARLINK-3899,1 52457U 22049G   23224.68066615  .00002141  00000-0  15251-3 0  9996,2 52457  53.2167 328.9776 0000776  92.4167 267.6914 15.08845487 70361,6917.864,95.437,540.265,539.192,0.0
